NORAD_CAT_ID,OBJECT_NAME,OBJECT_TYPE,EPOCH,MEAN_MOTION,ECCENTRICITY,INCLINATION,RA_OF_ASC_NODE,ARG_OF_PERICENTER,MEAN_ANOMALY,BSTAR,MEAN_MOTION_DOT,MEAN_MOTION_DDOT,TLE_LINE0,TLE_LINE1,TLE_LINE2,SEMIMAJOR_AXIS,PERIOD,APOGEE,PERIGEE,DECAYED
55945.0,STARLINK-5925,PAYLOAD,2023-08-07 18:47:13,14.9833495,0.0002943,69.9994,146.8473,263.5343,96.5481,-3.2997e-05,-4.87e-06,0.0,0 STARLINK-5925,1 55945U 23037AH  23219.78279102 -.00000487  00000-0 -32997-4 0  9991,2 55945  69.9994 146.8473 0002943 263.5343  96.5481 14.98334950 22781,6950.178,96.107,574.088,569.997,0.0
55945.0,STARLINK-5925,PAYLOAD,2023-08-09 07:38:38,14.98146241,0.0002847,69.999,142.9758,253.7657,106.3188,-0.001578,-0.00018782,0.0,0 STARLINK-5925,1 55945U 23037AH  23221.31849553 -.00018782  00000-0 -15780-2 0  9992,2 55945  69.9990 142.9758 0002847 253.7657 106.3188 14.98146241 23017,6950.761,96.119,574.605,570.647,0.0
55945.0,STARLINK-5925,PAYLOAD,2023-08-09 12:26:51,14.98304209,0.0003055,69.9991,142.47,267.5688,92.5121,0.00019468,2.229e-05,0.0,0 STARLINK-5925,1 55945U 23037AH  23221.51865670  .00002229  00000-0  19468-3 0  9997,2 55945  69.9991 142.4700 0003055 267.5688  92.5121 14.98304209 23045,6950.273,96.109,574.261,570.014,0.0
55945.0,STARLINK-5925,PAYLOAD,2023-08-09 23:39:39,14.98329934,0.0003024,69.9992,141.2927,269.3462,90.735,-4.3545e-05,-6.13e-06,0.0,0 STARLINK-5925,1 55945U 23037AH  23221.98587230 -.00000613  00000-0 -43545-4 0  9992,2 55945  69.9992 141.2927 0003024 269.3462  90.7350 14.98329934 23114,6950.193,96.107,574.16,569.956,0.0
55945.0,STARLINK-5925,PAYLOAD,2023-08-11 01:17:47,14.98314287,0.0003038,69.9989,138.5983,267.7228,92.3583,0.00029138,3.384e-05,0.0,0 STARLINK-5925,1 55945U 23037AH  23223.05402047  .00003384  00000-0  29138-3 0  9991,2 55945  69.9989 138.5983 0003038 267.7228  92.3583 14.98314287 23276,6950.241,96.108,574.218,569.995,0.0
55945.0,STARLINK-5925,PAYLOAD,2023-08-12 02:55:57,14.98328933,0.0003109,69.9987,135.9052,268.8777,91.2026,2.9731e-05,2.62e-06,0.0,0 STARLINK-5925,1 55945U 23037AH  23224.12218762  .00000262  00000-0  29731-4 0  9991,2 55945  69.9987 135.9052 0003109 268.8777  91.2026 14.98328933 23433,6950.196,96.107,574.222,569.9,0.0
55945.0,STARLINK-5925,PAYLOAD,2023-08-13 04:34:05,14.98350577,0.0003177,69.9985,133.212,267.1303,92.9492,-0.00033139,-4.047e-05,0.0,0 STARLINK-5925,1 55945U 23037AH  23225.19034349 -.00004047  00000-0 -33139-3 0  9999,2 55945  69.9985 133.2120 0003177 267.1303  92.9492 14.98350577 23591,6950.129,96.106,574.202,569.786,0.0
55945.0,STARLINK-5925,PAYLOAD,2023-08-13 18:59:18,14.98327411,0.0003172,69.9985,131.697,266.8731,93.2065,-2.344e-05,-3.73e-06,0.0,0 STARLINK-5925,1 55945U 23037AH  23225.79118898 -.00000373  00000-0 -23440-4 0  9990,2 55945  69.9985 131.6970 0003172 266.8731  93.2065 14.98327411 23683,6950.201,96.107,574.271,569.861,0.0
55945.0,STARLINK-5925,PAYLOAD,2023-08-15 03:01:59,14.98332465,0.0002999,69.999,128.3301,266.2399,93.8417,3.7718e-05,3.57e-06,0.0,0 STARLINK-5925,1 55945U 23037AH  23227.12638457  .00000357  00000-0  37718-4 0  9990,2 55945  69.9990 128.3301 0002999 266.2399  93.8417 14.98332465 23884,6950.185,96.107,574.135,569.966,0.0
55945.0,STARLINK-5925,PAYLOAD,2023-08-16 03:04:00,14.98331156,0.0002813,69.9996,125.8059,265.0368,95.047,5.4997e-05,5.63e-06,0.0,0 STARLINK-5925,1 55945U 23037AH  23228.12778479  .00000563  00000-0  54997-4 0  9997,2 55945  69.9996 125.8059 0002813 265.0368  95.0470 14.98331156 24037,6950.189,96.107,574.009,570.099,0.0
55945.0,STARLINK-5925,PAYLOAD,2023-08-17 03:06:01,14.9832707,0.0002871,69.9993,123.2809,267.3655,92.7175,0.00011938,1.332e-05,0.0,0 STARLINK-5925,1 55945U 23037AH  23229.12918384  .00001332  00000-0  11938-3 0  9991,2 55945  69.9993 123.2809 0002871 267.3655  92.7175 14.98327070 24189,6950.202,96.107,574.062,570.072,0.0
55945.0,STARLINK-5925,PAYLOAD,2023-08-18 03:08:02,14.98328596,0.0002937,69.9997,120.7566,266.9751,93.1072,1.1135e-05,4e-07,0.0,0 STARLINK-5925,1 55945U 23037AH  23230.13058478  .00000040  00000-0  11135-4 0  9998,2 55945  69.9997 120.7566 0002937 266.9751  93.1072 14.98328596 24332,6950.197,96.107,574.104,570.021,0.0
55945.0,STARLINK-5925,PAYLOAD,2023-08-19 03:10:03,14.98330957,0.0002828,69.9996,118.2302,275.4987,84.585,-2.5173e-05,-3.93e-06,0.0,0 STARLINK-5925,1 55945U 23037AH  23231.13198506 -.00000393  00000-0 -25173-4 0  9996,2 55945  69.9996 118.2302 0002828 275.4987  84.5850 14.98330957 24484,6950.19,96.107,574.02,570.089,0.0
55945.0,STARLINK-5925,PAYLOAD,2023-08-20 03:12:04,14.98326399,0.0003096,69.9992,115.7047,273.0244,87.056,-4.1669e-05,-5.9e-06,0.0,0 STARLINK-5925,1 55945U 23037AH  23232.13338846 -.00000590  00000-0 -41669-4 0  9997,2 55945  69.9992 115.7047 0003096 273.0244  87.0560 14.98326399 24634,6950.204,96.107,574.221,569.917,0.0
55945.0,STARLINK-5925,PAYLOAD,2023-08-21 01:37:56,14.98338315,0.0002962,69.9989,113.3484,269.0919,90.99,1.2729e-05,5.9e-07,0.0,0 STARLINK-5925,1 55945U 23037AH  23233.06801895  .00000059  00000-0  12729-4 0  9992,2 55945  69.9989 113.3484 0002962 269.0919  90.9900 14.98338315 24771,6950.167,96.106,574.091,569.974,0.0
55945.0,STARLINK-5925,PAYLOAD,2023-08-21 20:51:34,14.98330095,0.0002815,69.9993,111.3295,267.9517,92.1319,-3.8501e-05,-5.52e-06,0.0,0 STARLINK-5925,1 55945U 23037AH  23233.86914590 -.00000552  00000-0 -38501-4 0  9993,2 55945  69.9993 111.3295 0002815 267.9517  92.1319 14.98330095 24890,6950.193,96.107,574.014,570.101,0.0
55945.0,STARLINK-5925,PAYLOAD,2023-08-23 01:41:58,14.98334332,0.000286,69.9992,108.3001,269.2033,90.8798,-1.1593e-05,-2.31e-06,0.0,0 STARLINK-5925,1 55945U 23037AH  23235.07082062 -.00000231  00000-0 -11593-4 0  9994,2 55945  69.9992 108.3001 0002860 269.2033  90.8798 14.98334332 25073,6950.179,96.107,574.032,570.057,0.0
55945.0,STARLINK-5925,PAYLOAD,2023-08-24 19:21:28,14.98331629,0.0002899,69.9992,103.9224,272.4643,87.6184,-1.0854e-05,-2.23e-06,0.0,0 STARLINK-5925,1 55945U 23037AH  23236.80658183 -.00000223  00000-0 -10854-4 0  9999,2 55945  69.9992 103.9224 0002899 272.4643  87.6184 14.98331629 24995,6950.188,96.107,574.068,570.038,0.0
55945.0,STARLINK-5925,PAYLOAD,2023-08-25 01:46:00,14.98332557,0.0002878,69.9992,103.249,272.8483,87.2346,2.4121e-06,-6.4e-07,0.0,0 STARLINK-5925,1 55945U 23037AH  23237.07362058 -.00000064  00000-0  24121-5 0  9997,2 55945  69.9992 103.2490 0002878 272.8483  87.2346 14.98332557 25376,6950.185,96.107,574.05,570.05,0.0
55945.0,STARLINK-5925,PAYLOAD,2023-08-25 19:23:29,14.98324611,0.0002977,69.9988,101.3974,270.1085,89.9733,-2.23e-05,-3.59e-06,0.0,0 STARLINK-5925,1 55945U 23037AH  23237.80798572 -.00000359  00000-0 -22300-4 0  9996,2 55945  69.9988 101.3974 0002977 270.1085  89.9733 14.98324611 25489,6950.21,96.107,574.144,570.005,0.0
55945.0,STARLINK-5925,PAYLOAD,2023-08-26 01:48:02,14.98324299,0.0003048,69.9987,100.7236,269.9404,90.1406,4.5593e-05,4.51e-06,0.0,0 STARLINK-5925,1 55945U 23037AH  23238.07502465  .00000451  00000-0  45593-4 0  9990,2 55945  69.9987 100.7236 0003048 269.9404  90.1406 14.98324299 25183,6950.211,96.107,574.194,569.957,0.0
55945.0,STARLINK-5925,PAYLOAD,2023-08-26 17:49:22,14.98330464,0.0002947,69.9985,99.0404,264.6821,95.4002,-1.9122e-05,-3.21e-06,0.0,0 STARLINK-5925,1 55945U 23037AH  23238.74262247 -.00000321  00000-0 -19122-4 0  9992,2 55945  69.9985  99.0404 0002947 264.6821  95.4002 14.98330464 25620,6950.191,96.107,574.105,570.008,0.0
55945.0,STARLINK-5925,PAYLOAD,2023-08-26 21:01:38,14.98330279,0.0002952,69.9986,98.7038,264.9646,95.1176,-2.0117e-05,-3.33e-06,0.0,0 STARLINK-5925,1 55945U 23037AH  23238.87614259 -.00000333  00000-0 -20117-4 0  9999,2 55945  69.9986  98.7038 0002952 264.9646  95.1176 14.98330279 25302,6950.192,96.107,574.109,570.005,0.0
55945.0,STARLINK-5925,PAYLOAD,2023-08-27 00:13:54,14.98330622,0.000295,69.9985,98.367,265.774,94.3082,-1.5268e-05,-2.75e-06,0.0,0 STARLINK-5925,1 55945U 23037AH  23239.00966220 -.00000275  00000-0 -15268-4 0  9999,2 55945  69.9985  98.3670 0002950 265.7740  94.3082 14.98330622 25322,6950.191,96.107,574.106,570.006,0.0
55945.0,STARLINK-5925,PAYLOAD,2023-08-27 17:51:23,14.98328205,0.0003046,69.9983,96.5151,268.8876,91.1934,2.8518e-05,2.47e-06,0.0,0 STARLINK-5925,1 55945U 23037AH  23239.74402209  .00000247  00000-0  28518-4 0  9991,2 55945  69.9983  96.5151 0003046 268.8876  91.1934 14.98328205 25779,6950.198,96.107,574.18,569.946,0.0
55945.0,STARLINK-5925,PAYLOAD,2023-08-27 21:03:39,14.98328098,0.0003046,69.9983,96.1784,268.8929,91.1881,2.6782e-05,2.27e-06,0.0,0 STARLINK-5925,1 55945U 23037AH  23239.87754230  .00000227  00000-0  26782-4 0  9998,2 55945  69.9983  96.1784 0003046 268.8929  91.1881 14.98328098 25452,6950.199,96.107,574.181,569.947,0.0
55945.0,STARLINK-5925,PAYLOAD,2023-08-28 21:05:40,14.98330577,0.0003009,69.9985,93.6536,270.914,89.1674,8.6483e-07,-8.3e-07,0.0,0 STARLINK-5925,1 55945U 23037AH  23240.87894166 -.00000083  00000-0  86483-6 0  9990,2 55945  69.9985  93.6536 0003009 270.9140  89.1674 14.98330577 25608,6950.191,96.107,574.147,569.965,0.0
55945.0,STARLINK-5925,PAYLOAD,2023-08-29 00:17:56,14.98331027,0.0002995,69.9985,93.3168,271.0483,89.0333,7.3983e-06,-5e-08,0.0,0 STARLINK-5925,1 55945U 23037AH  23241.01246110 -.00000005  00000-0  73983-5 0  9991,2 55945  69.9985  93.3168 0002995 271.0483  89.0333 14.98331027 25962,6950.19,96.107,574.136,569.973,0.0
55945.0,STARLINK-5925,PAYLOAD,2023-08-29 17:55:25,14.98329582,0.0002971,69.9985,91.4652,271.1067,88.9752,-2.1632e-08,-9.3e-07,0.0,0 STARLINK-5925,1 55945U 23037AH  23241.74682156 -.00000093  00000-0 -21632-7 0  9999,2 55945  69.9985  91.4652 0002971 271.1067  88.9752 14.98329582 25733,6950.194,96.107,574.124,569.994,0.0
55945.0,STARLINK-5925,PAYLOAD,2023-08-30 00:19:57,14.98330182,0.0002968,69.9986,90.7918,271.3884,88.6935,7.953e-06,2e-08,0.0,0 STARLINK-5925,1 55945U 23037AH  23242.01386095  .00000002  00000-0  79530-5 0  9999,2 55945  69.9986  90.7918 0002968 271.3884  88.6935 14.98330182 26117,6950.192,96.107,574.12,569.995,0.0
